SL-3 R/B                
1 13403U 82079B   26038.93501062  .00006737  00000+0  27196-3 0  9992
2 13403  81.1442 228.2010 0024112 267.1311  92.7163 15.24363293373165
SL-14 R/B               
1 13553U 82092B   26038.83640527  .00000774  00000+0  84099-4 0  9993
2 13553  82.5702 169.3133 0021369  43.5235  70.5753 14.86633146324493
SL-3 R/B                
1 13819U 83010B   26038.98405406  .00015788  00000+0  32865-3 0  9994
2 13819  81.1026  38.6381 0017911 145.4935 214.7476 15.45302125353359
SL-3 R/B                
1 14208U 83075B   26038.95440626  .00013504  00000+0  36479-3 0  9997
2 14208  97.6136  42.4287 0021201 341.6502  18.3975 15.37647905325586
COSMOS 1536             
1 14699U 84013A   26038.77195252  .00007938  00000+0  33105-3 0  9993
2 14699  82.5469 137.5737 0014987  32.8756 327.3410 15.23427809268061
SL-14 R/B               
1 14820U 84027B   26038.72768808  .00000569  00000+0  62193-4 0  9995
2 14820  82.5400 273.1198 0019488  74.0635 286.2727 14.85947233243180
SL-8 R/B                
1 15483U 85006B   26038.95036966  .00000298  00000+0  10753-3 0  9990
2 15483  74.0473 315.8708 0019530 239.4162 197.4510 14.37768309149756
SL-12 R/B(2)            
1 15772U 85042D   26038.73594273  .00000182  00000+0  10319-3 0  9997
2 15772  71.1087 151.0113 0034987 176.0840 291.8229 14.21973808110139
SL-14 R/B               
1 15945U 85069B   26038.51958096  .00000674  00000+0  73480-4 0  9996
2 15945  82.5240  53.3092 0017322 294.5509  65.3902 14.86397603168353
SL-16 R/B               
1 16182U 85097B   26038.91578264 -.00000048  00000+0 -68941-7 0  9996
2 16182  71.0016 203.2320 0009584 294.5187 178.7757 14.16596401 83010
SL-14 R/B               
1 16496U 86006B   26038.77377236  .00000948  00000+0  98046-4 0  9998
2 16496  82.5269 287.8951 0077011  13.0335 347.2847 14.86774312144761
COSMOS 1743             
1 16719U 86034A   26038.63673131  .00037421  00000+0  52843-3 0  9995
2 16719  82.5329 105.3161 0005128  55.3863 304.7874 15.56379282175574
